{
  "norad_id": 51638,
  "name": "ONEWEB-0444",
  "history": [
    {
      "epoch": "2026-03-28T22:05:40.989984Z",
      "apogee_km": 1223.163485953347,
      "perigee_km": 1220.2755404783256,
      "latitude_deg": 1.5170580303911146e-05,
      "longitude_deg": -105.51212485997115,
      "height_km": 1224.4573447367634,
      "semi_major_axis_km": 7599.8565132158365,
      "eccentricity": 0.00019,
      "inclination_deg": 87.8802,
      "raan_deg": 52.2428,
      "arg_perigee_deg": 84.174,
      "mean_anomaly_deg": 275.9604,
      "mean_motion_rev_day": 13.10372206
    }
  ]
}