{"fetched_at":"2026-03-29T16:36:15Z","count":15609,"tles":[{"name":"ONEWEB-0444","line1":"1 51638U 22012S   26087.92061331 -.00000569  00000+0 -16666-2 0  9996","line2":"2 51638  87.8802  52.2428 0001900  84.1740 275.9604 13.10372206198821","category":"Other"}]}